[{"OBJECT_NAME":"STARLINK-4339","OBJECT_ID":"2022-077M","EPOCH":"2026-03-09T23:16:39.638208","MEAN_MOTION":15.05648298,"ECCENTRICITY":0.00015574,"INCLINATION":97.6024,"RA_OF_ASC_NODE":251.5464,"ARG_OF_PERICENTER":84.1865,"MEAN_ANOMALY":275.9539,"EPHEMERIS_TYPE":0,"CLASSIFICATION_TYPE":"U","NORAD_CAT_ID":53054,"ELEMENT_SET_NO":999,"REV_AT_EPOCH":20102,"BSTAR":2.9849202e-5,"MEAN_MOTION_DOT":3.7e-6,"MEAN_MOTION_DDOT":0},{"OBJECT_NAME":"H-2A R\/B","OBJECT_ID":"2009-002J","EPOCH":"2026-03-09T23:38:52.170720","MEAN_MOTION":15.01829324,"ECCENTRICITY":0.00333022,"INCLINATION":98.2328,"RA_OF_ASC_NODE":87.9691,"ARG_OF_PERICENTER":111.7239,"MEAN_ANOMALY":248.7534,"EPHEMERIS_TYPE":0,"CLASSIFICATION_TYPE":"U","NORAD_CAT_ID":33500,"ELEMENT_SET_NO":999,"REV_AT_EPOCH":92943,"BSTAR":0.00033449169,"MEAN_MOTION_DOT":4.347e-5,"MEAN_MOTION_DDOT":0}]
